{
    "satellites": [
        {
            "name": "starlink369",
            "title": "Starlink-369 (G17-15) (new)",
            "tle": [
                "1 68299C 26057F   26084.94562500 -.00752830  00000+0 -97765-3 0   843",
                "2 68299  97.2832 207.7899 0001049  69.9569  49.0547 16.07468047    10"
            ],
            "stdMag": 5,
            "noradId": "68299",
            "intDes": null,
            "tleUrl": "http://celestrak.org/NORAD/elements/supplemental/sup-gp.php?FILE=starlink&FORMAT=tle",
            "launchDate": "2026-03-20T21:51:49.000Z",
            "active": true,
            "batch": [
                {
                    "noradId": "68299",
                    "tle": [
                        "1 68299C 26057F   26084.94562500 -.00752830  00000+0 -97765-3 0   843",
                        "2 68299  97.2832 207.7899 0001049  69.9569  49.0547 16.07468047    10"
                    ]
                }
            ]
        }
    ],
    "config": {}
}